{
  "type": "FeatureCollection",
  "features": [
    {
      "type": "Feature",
      "properties": {
        "norad_id": 29807,
        "name": "FENGYUN 1C DEB",
        "group": "fengyun-1c-debris",
        "lat": -39.872771172625725,
        "lon": 8.586602117222453,
        "alt_km": 815.3787457130093,
        "timestamp": "2025-12-22T20:43:46.120114+00:00",
        "meta_object_name": "FENGYUN 1C DEB",
        "meta_object_id": "1999-025CZ",
        "meta_epoch": "2025-12-22T14:05:59.930880",
        "meta_mean_motion": 14.08666587,
        "meta_eccentricity": 0.00791576,
        "meta_inclination": 98.7547,
        "meta_ra_of_asc_node": 0.9228,
        "meta_arg_of_pericenter": 303.9135,
        "meta_mean_anomaly": 55.4525,
        "meta_ephemeris_type": 0,
        "meta_classification_type": "U",
        "meta_norad_cat_id": 29807,
        "meta_element_set_no": 999,
        "meta_rev_at_epoch": 97233,
        "meta_bstar": 0.00027184166,
        "meta_mean_motion_dot": 4.38e-06,
        "meta_mean_motion_ddot": 0,
        "tle_line1": "1 29807U 99025CZ  25356.58749920  .00000438  00000+0  27184-3 0  9995",
        "tle_line2": "2 29807  98.7547   0.9228 0079157 303.9135  55.4525 14.08666587972333"
      },
      "geometry": {
        "type": "Point",
        "coordinates": [
          8.586602117222453,
          -39.872771172625725
        ]
      }
    },
    {
      "type": "Feature",
      "properties": {
        "norad_id": 29808,
        "name": "FENGYUN 1C DEB",
        "group": "fengyun-1c-debris",
        "lat": -16.7483713106377,
        "lon": -79.99942171226843,
        "alt_km": 487.61084249420037,
        "timestamp": "2025-12-22T20:43:46.120124+00:00",
        "meta_object_name": "FENGYUN 1C DEB",
        "meta_object_id": "1999-025DA",
        "meta_epoch": "2025-12-22T05:46:03.246240",
        "meta_mean_motion": 15.27711753,
        "meta_eccentricity": 0.00200182,
        "meta_inclination": 99.0127,
        "meta_ra_of_asc_node": 276.5099,
        "meta_arg_of_pericenter": 82.358,
        "meta_mean_anomaly": 73.9024,
        "meta_ephemeris_type": 0,
        "meta_classification_type": "U",
        "meta_norad_cat_id": 29808,
        "meta_element_set_no": 999,
        "meta_rev_at_epoch": 98370,
        "meta_bstar": 0.016003032,
        "meta_mean_motion_dot": 0.00462684,
        "meta_mean_motion_ddot": 0,
        "tle_line1": "1 29808U 99025DA  25356.24031535  .00462684  00000+0  16003-1 0  9996",
        "tle_line2": "2 29808  99.0127 276.5099 0020018  82.3580  73.9024 15.27711753983703"
      },
      "geometry": {
        "type": "Point",
        "coordinates": [
          -79.99942171226843,
          -16.7483713106377
        ]
      }
    },
    {
      "type": "Feature",
      "properties": {
        "norad_id": 29809,
        "name": "FENGYUN 1C DEB",
        "group": "fengyun-1c-debris",
        "lat": -74.63642784195655,
        "lon": -4.537561592261281,
        "alt_km": 677.9808785268096,
        "timestamp": "2025-12-22T20:43:46.120135+00:00",
        "meta_object_name": "FENGYUN 1C DEB",
        "meta_object_id": "1999-025DB",
        "meta_epoch": "2025-12-21T20:18:55.944576",
        "meta_mean_motion": 14.46614629,
        "meta_eccentricity": 0.01155835,
        "meta_inclination": 98.8613,
        "meta_ra_of_asc_node": 319.8029,
        "meta_arg_of_pericenter": 322.6713,
        "meta_mean_anomaly": 66.1552,
        "meta_ephemeris_type": 0,
        "meta_classification_type": "U",
        "meta_norad_cat_id": 29809,
        "meta_element_set_no": 999,
        "meta_rev_at_epoch": 99599,
        "meta_bstar": 0.0002785414,
        "meta_mean_motion_dot": 1.037e-05,
        "meta_mean_motion_ddot": 0,
        "tle_line1": "1 29809U 99025DB  25355.84648084  .00001037  00000+0  27854-3 0  9994",
        "tle_line2": "2 29809  98.8613 319.8029 0115583 322.6713  66.1552 14.46614629995993"
      },
      "geometry": {
        "type": "Point",
        "coordinates": [
          -4.537561592261281,
          -74.63642784195655
        ]
      }
    },
    {
      "type": "Feature",
      "properties": {
        "norad_id": 29810,
        "name": "FENGYUN 1C DEB",
        "group": "fengyun-1c-debris",
        "lat": 31.28196058140031,
        "lon": 28.5947107422637,
        "alt_km": 757.2299306384912,
        "timestamp": "2025-12-22T20:43:46.120145+00:00",
        "meta_object_name": "FENGYUN 1C DEB",
        "meta_object_id": "1999-025DC",
        "meta_epoch": "2025-12-22T14:26:05.068320",
        "meta_mean_motion": 14.29142963,
        "meta_eccentricity": 0.00664609,
        "meta_inclination": 99.2055,
        "meta_ra_of_asc_node": 33.9724,
        "meta_arg_of_pericenter": 350.5737,
        "meta_mean_anomaly": 132.0951,
        "meta_ephemeris_type": 0,
        "meta_classification_type": "U",
        "meta_norad_cat_id": 29810,
        "meta_element_set_no": 999,
        "meta_rev_at_epoch": 98518,
        "meta_bstar": 0.00023044559,
        "meta_mean_motion_dot": 5.49e-06,
        "meta_mean_motion_ddot": 0,
        "tle_line1": "1 29810U 99025DC  25356.60144755  .00000549  00000+0  23045-3 0  9992",
        "tle_line2": "2 29810  99.2055  33.9724 0066460 350.5737 132.0951 14.29142963985185"
      },
      "geometry": {
        "type": "Point",
        "coordinates": [
          28.5947107422637,
          31.28196058140031
        ]
      }
    },
    {
      "type": "Feature",
      "properties": {
        "norad_id": 29812,
        "name": "FENGYUN 1C DEB",
        "group": "fengyun-1c-debris",
        "lat": 2.6148637570629294,
        "lon": -175.52218555010626,
        "alt_km": 841.5177171915429,
        "timestamp": "2025-12-22T20:43:46.120155+00:00",
        "meta_object_name": "FENGYUN 1C DEB",
        "meta_object_id": "1999-025DE",
        "meta_epoch": "2025-12-22T12:25:28.951680",
        "meta_mean_motion": 14.02020328,
        "meta_eccentricity": 0.01437047,
        "meta_inclination": 98.3493,
        "meta_ra_of_asc_node": 184.545,
        "meta_arg_of_pericenter": 300.2704,
        "meta_mean_anomaly": 115.4819,
        "meta_ephemeris_type": 0,
        "meta_classification_type": "U",
        "meta_norad_cat_id": 29812,
        "meta_element_set_no": 999,
        "meta_rev_at_epoch": 96309,
        "meta_bstar": 0.0010836609,
        "meta_mean_motion_dot": 1.77e-05,
        "meta_mean_motion_ddot": 0,
        "tle_line1": "1 29812U 99025DE  25356.51769620  .00001770  00000+0  10837-2 0  9999",
        "tle_line2": "2 29812  98.3493 184.5450 0143704 300.2704 115.4819 14.02020328963090"
      },
      "geometry": {
        "type": "Point",
        "coordinates": [
          -175.52218555010626,
          2.6148637570629294
        ]
      }
    },
    {
      "type": "Feature",
      "properties": {
        "norad_id": 29813,
        "name": "FENGYUN 1C DEB",
        "group": "fengyun-1c-debris",
        "lat": -78.56537535603782,
        "lon": 147.0023915335948,
        "alt_km": 865.5387823920892,
        "timestamp": "2025-12-22T20:43:46.120165+00:00",
        "meta_object_name": "FENGYUN 1C DEB",
        "meta_object_id": "1999-025DF",
        "meta_epoch": "2025-12-22T01:00:45.522720",
        "meta_mean_motion": 14.09453836,
        "meta_eccentricity": 0.00122663,
        "meta_inclination": 98.7265,
        "meta_ra_of_asc_node": 15.6143,
        "meta_arg_of_pericenter": 194.7094,
        "meta_mean_anomaly": 221.5598,
        "meta_ephemeris_type": 0,
        "meta_classification_type": "U",
        "meta_norad_cat_id": 29813,
        "meta_element_set_no": 999,
        "meta_rev_at_epoch": 97391,
        "meta_bstar": 1.9877318e-05,
        "meta_mean_motion_dot": -8e-08,
        "meta_mean_motion_ddot": 0,
        "tle_line1": "1 29813U 99025DF  25356.04219355 -.00000008  00000+0  19877-4 0  9992",
        "tle_line2": "2 29813  98.7265  15.6143 0012266 194.7094 221.5598 14.09453836973917"
      },
      "geometry": {
        "type": "Point",
        "coordinates": [
          147.0023915335948,
          -78.56537535603782
        ]
      }
    },
    {
      "type": "Feature",
      "properties": {
        "norad_id": 29815,
        "name": "FENGYUN 1C DEB",
        "group": "fengyun-1c-debris",
        "lat": 52.62392387643979,
        "lon": -5.52756930614204,
        "alt_km": 591.1801805219229,
        "timestamp": "2025-12-22T20:43:46.120190+00:00",
        "meta_object_name": "FENGYUN 1C DEB",
        "meta_object_id": "1999-025DH",
        "meta_epoch": "2025-12-22T12:17:08.175552",
        "meta_mean_motion": 14.63771469,
        "meta_eccentricity": 0.01842026,
        "meta_inclination": 98.0552,
        "meta_ra_of_asc_node": 4.8121,
        "meta_arg_of_pericenter": 104.5943,
        "meta_mean_anomaly": 257.5765,
        "meta_ephemeris_type": 0,
        "meta_classification_type": "U",
        "meta_norad_cat_id": 29815,
        "meta_element_set_no": 999,
        "meta_rev_at_epoch": 99998,
        "meta_bstar": 0.00047315302,
        "meta_mean_motion_dot": 3.105e-05,
        "meta_mean_motion_ddot": 0,
        "tle_line1": "1 29815U 99025DH  25356.51190018  .00003105  00000+0  47315-3 0  9997",
        "tle_line2": "2 29815  98.0552   4.8121 0184202 104.5943 257.5765 14.63771469999984"
      },
      "geometry": {
        "type": "Point",
        "coordinates": [
          -5.52756930614204,
          52.62392387643979
        ]
      }
    }
  ]
}